HULIANWANG DIGUI 18J    
1 67443U 26007J   26017.13247141 -.00000110  00000+0  28934-4 0  9990
2 67443  50.0090 280.5336 0006103 288.6914  71.3323 13.92552423   493
CZ-8A R/B               
1 67444U 26007K   26017.15242301 -.00000234  00000+0 -39236-4 0  9991
2 67444  50.0118 279.9769 0092137  95.1432 266.0000 14.13545021   490
ALSAT-3A                
1 67474U 26009A   26017.64182372  .00006849  00000+0  29043-3 0  9991
2 67474  97.4727  92.4072 0011399 259.5647 100.4306 15.23391154   380
CZ-2C R/B               
1 67475U 26009B   26017.60865803  .00004240  00000+0  28825-3 0  9995
2 67475  97.1817  91.8929 0098965 214.4635 145.0149 15.02881814   376
2026-012A               
1 67483U 26012A   26017.61582459  .00001158  00000+0  10212-3 0  9998
2 67483  97.5470  93.5003 0008917 314.8090  45.2407 14.98282882    73
